[{"OBJECT_NAME":"IONOSFERA-M 1","OBJECT_ID":"2024-199A","EPOCH":"2026-03-09T23:07:06.038112","MEAN_MOTION":14.22735344,"ECCENTRICITY":0.00020871,"INCLINATION":98.7325,"RA_OF_ASC_NODE":303.1052,"ARG_OF_PERICENTER":75.9685,"MEAN_ANOMALY":284.1725,"EPHEMERIS_TYPE":0,"CLASSIFICATION_TYPE":"U","NORAD_CAT_ID":61735,"ELEMENT_SET_NO":999,"REV_AT_EPOCH":11359,"BSTAR":4.8219719e-5,"MEAN_MOTION_DOT":6.4e-7,"MEAN_MOTION_DDOT":0},{"OBJECT_NAME":"CZ-6A DEB","OBJECT_ID":"2022-151FT","EPOCH":"2026-03-09T12:40:01.818912","MEAN_MOTION":14.21857153,"ECCENTRICITY":0.00164729,"INCLINATION":98.817,"RA_OF_ASC_NODE":90.6586,"ARG_OF_PERICENTER":233.6573,"MEAN_ANOMALY":126.3084,"EPHEMERIS_TYPE":0,"CLASSIFICATION_TYPE":"U","NORAD_CAT_ID":54443,"ELEMENT_SET_NO":999,"REV_AT_EPOCH":17178,"BSTAR":0.00084822437,"MEAN_MOTION_DOT":1.827e-5,"MEAN_MOTION_DDOT":0}]
